LANDSAT 9               
1 49260U 21088A   23335.16713257  .00000970  00000+0  22540-3 0  9999
2 49260  98.2129  42.9090 0001107  89.1730 270.9595 14.57118099115701
